{"spaceTrack"{"CCSDS_OMM_VERS":"2.0","COMMENT":"GENERATED VIA SPACE-TRACK.ORG API","CREATION_DATE":"2021-01-21T06:26:10","ORIGINATOR":"18 SPCS","OBJECT_NAME":"STARLINK-1337","OBJECT_ID":"2020-025BD","CENTER_NAME":"EARTH","REF_FRAME":"TEME","TIME_SYSTEM":"UTC","MEAN_ELEMENT_THEORY":"SGP4","EPOCH":"2021-01-21T06:26:10","MEAN_MOTION":15.06188851,"ECCENTRICITY":0.0001748,"INCLINATION":53.002,"RA_OF_ASC_NODE":182.3956,"ARG_OF_PERICENTER":107.4462,"MEAN_ANOMALY":252.6717,"EPHEMERIS_TYPE":0,"CLASSIFICATION_TYPE":"U","NORAD_CAT_ID":45582,"ELEMENT_SET_NO":999,"REV_AT_EPOCH":4335,"BSTAR":0.0030829,"MEAN_MOTION_DOT":0.00045676,"MEAN_MOTION_DDOT":0,"SEMIMAJOR_AXIS":6925.996,"PERIOD":95.606,"APOAPSIS":549.071,"PERIAPSIS":546.65,"OBJECT_TYPE":"PAYLOAD","RCS_SIZE":"LARGE","COUNTRY_CODE":"US","LAUNCH_DATE":"2020-04-22","SITE":"AFETR","DECAY_DATE":null,"DECAYED":0,"FILE":2940340,"GP_ID":170437238,"TLE_LINE0":"0 STARLINK-1337","TLE_LINE1":"1 45582U 20025BD  21026.68844956  .00045676  00000-0  30829-2 0  9996","TLE_LINE2":"2 45582  53.0020 182.3956 0001748 107.4462 252.6717 15.06188851 43352"},"version":"v1.0","launch":"5eb87d44ffd86e000604b386","longitude":132,"latitude":17.377628571781663,"height_km":547.2655844033288,"velocity_kms":7.591503700154085,"id":"5eed7715096e59000698577b"}
{"spaceTrack"{"CCSDS_OMM_VERS":"2.0","COMMENT":"GENERATED VIA SPACE-TRACK.ORG API","CREATION_DATE":"2021-01-21T06:26:10","ORIGINATOR":"18 SPCS","OBJECT_NAME":"STARLINK-1299","OBJECT_ID":"2020-019BL","CENTER_NAME":"EARTH","REF_FRAME":"TEME","TIME_SYSTEM":"UTC","MEAN_ELEMENT_THEORY":"SGP4","EPOCH":"2021-01-21T06:26:10","MEAN_MOTION":14.99870093,"ECCENTRICITY":0.0001894,"INCLINATION":53.002,"RA_OF_ASC_NODE":281.3825,"ARG_OF_PERICENTER":79.6699,"MEAN_ANOMALY":280.45,"EPHEMERIS_TYPE":0,"CLASSIFICATION_TYPE":"U","NORAD_CAT_ID":45418,"ELEMENT_SET_NO":999,"REV_AT_EPOCH":4776,"BSTAR":0.00019055,"MEAN_MOTION_DOT":0.00002122,"MEAN_MOTION_DDOT":0,"SEMIMAJOR_AXIS":6945.434,"PERIOD":96.008,"APOAPSIS":568.615,"PERIAPSIS":565.984,"OBJECT_TYPE":"PAYLOAD","RCS_SIZE":"LARGE","COUNTRY_CODE":"US","LAUNCH_DATE":"2020-03-18","SITE":"AFETR","DECAY_DATE":null,"DECAYED":0,"FILE":2940038,"GP_ID":170390165,"TLE_LINE0":"0 STARLINK-1299","TLE_LINE1":"1 45418U 20019BL  21026.41372121  .00002122  00000-0  19055-3 0  9996","TLE_LINE2":"2 45418  53.0020 281.3825 0001894  79.6699 280.4500 14.99870093 47764"},"version":"v1.0","launch":"5eb87d43ffd86e000604b385","longitude":27,"latitude":-12.298916175176032,"height_km":571.0920399681854,"velocity_kms":7.575537052837686,"id":"5eed7715096e59000698577c"}
{"spaceTrack"{"CCSDS_OMM_VERS":"2.0","COMMENT":"GENERATED VIA SPACE-TRACK.ORG API","CREATION_DATE":"2021-01-21T06:26:10","ORIGINATOR":"18 SPCS","OBJECT_NAME":"STARLINK-1286","OBJECT_ID":"2020-019BK","CENTER_NAME":"EARTH","REF_FRAME":"TEME","TIME_SYSTEM":"UTC","MEAN_ELEMENT_THEORY":"SGP4","EPOCH":"2021-01-21T06:26:10","MEAN_MOTION":15.06370941,"ECCENTRICITY":0.0003301,"INCLINATION":53.0064,"RA_OF_ASC_NODE":271.9152,"ARG_OF_PERICENTER":75.5257,"MEAN_ANOMALY":284.6098,"EPHEMERIS_TYPE":0,"CLASSIFICATION_TYPE":"U","NORAD_CAT_ID":45417,"ELEMENT_SET_NO":999,"REV_AT_EPOCH":4819,"BSTAR":0.0002842,"MEAN_MOTION_DOT":0.00003951,"MEAN_MOTION_DDOT":0,"SEMIMAJOR_AXIS":6925.438,"PERIOD":95.594,"APOAPSIS":549.589,"PERIAPSIS":545.017,"OBJECT_TYPE":"PAYLOAD","RCS_SIZE":"LARGE","COUNTRY_CODE":"US","LAUNCH_DATE":"2020-03-18","SITE":"AFETR","DECAY_DATE":null,"DECAYED":0,"FILE":2940362,"GP_ID":170438025,"TLE_LINE0":"0 STARLINK-1286","TLE_LINE1":"1 45417U 20019BK  21026.79441928  .00003951  00000-0  28420-3 0  9995","TLE_LINE2":"2 45417  53.0064 271.9152 0003301  75.5257 284.6098 15.06370941 48191"},"version":"v1.0","launch":"5eb87d43ffd86e000604b385","longitude":12,"latitude":-42.335974290814136,"height_km":562.9690104240462,"velocity_kms":7.578756269999004,"id":"5eed7715096e59000698577d"}
{"spaceTrack"{"CCSDS_OMM_VERS":"2.0","COMMENT":"GENERATED VIA SPACE-TRACK.ORG API","CREATION_DATE":"2021-01-21T06:26:10","ORIGINATOR":"18 SPCS","OBJECT_NAME":"STARLINK-1318","OBJECT_ID":"2020-019BJ","CENTER_NAME":"EARTH","REF_FRAME":"TEME","TIME_SYSTEM":"UTC","MEAN_ELEMENT_THEORY":"SGP4","EPOCH":"2021-01-21T06:26:10","MEAN_MOTION":15.06389816,"ECCENTRICITY":0.0001174,"INCLINATION":53.0282,"RA_OF_ASC_NODE":243.1078,"ARG_OF_PERICENTER":83.6874,"MEAN_ANOMALY":276.4248,"EPHEMERIS_TYPE":0,"CLASSIFICATION_TYPE":"U","NORAD_CAT_ID":45416,"ELEMENT_SET_NO":999,"REV_AT_EPOCH":4829,"BSTAR":0.00024304,"MEAN_MOTION_DOT":0.0000334,"MEAN_MOTION_DDOT":0,"SEMIMAJOR_AXIS":6925.38,"PERIOD":95.593,"APOAPSIS":548.058,"PERIAPSIS":546.432,"OBJECT_TYPE":"PAYLOAD","RCS_SIZE":"LARGE","COUNTRY_CODE":"US","LAUNCH_DATE":"2020-03-18","SITE":"AFETR","DECAY_DATE":null,"DECAYED":0,"FILE":2940260,"GP_ID":170412341,"TLE_LINE0":"0 STARLINK-1318","TLE_LINE1":"1 45416U 20019BJ  21026.52441322  .00003340  00000-0  24304-3 0  9992","TLE_LINE2":"2 45416  53.0282 243.1078 0001174  83.6874 276.4248 15.06389816 48299"},"version":"v1.0","launch":"5eb87d43ffd86e000604b385","longitude":150,"latitude":-25.243790833263795,"height_km":554.9354478963096,"velocity_kms":7.584000514638673,"id":"5eed7715096e59000698577e"}
{"spaceTrack"{"CCSDS_OMM_VERS":"2.0","COMMENT":"GENERATED VIA SPACE-TRACK.ORG API","CREATION_DATE":"2021-01-21T06:26:10","ORIGINATOR":"18 SPCS","OBJECT_NAME":"STARLINK-1471","OBJECT_ID":"2020-038F","CENTER_NAME":"EARTH","REF_FRAME":"TEME","TIME_SYSTEM":"UTC","MEAN_ELEMENT_THEORY":"SGP4","EPOCH":"2021-01-21T06:26:10","MEAN_MOTION":15.06446999,"ECCENTRICITY":0.0002138,"INCLINATION":53.051,"RA_OF_ASC_NODE":342.4669,"ARG_OF_PERICENTER":64.2874,"MEAN_ANOMALY":295.8335,"EPHEMERIS_TYPE":0,"CLASSIFICATION_TYPE":"U","NORAD_CAT_ID":45735,"ELEMENT_SET_NO":999,"REV_AT_EPOCH":3575,"BSTAR":-0.000095363,"MEAN_MOTION_DOT":-0.00001704,"MEAN_MOTION_DDOT":0,"SEMIMAJOR_AXIS":6925.205,"PERIOD":95.589,"APOAPSIS":548.55,"PERIAPSIS":545.589,"OBJECT_TYPE":"PAYLOAD","RCS_SIZE":"LARGE","COUNTRY_CODE":"US","LAUNCH_DATE":"2020-06-13","SITE":"AFETR","DECAY_DATE":null,"DECAYED":0,"FILE":2940387,"GP_ID":170438782,"TLE_LINE0":"0 STARLINK-1471","TLE_LINE1":"1 45735U 20038F   21026.66627853 -.00001704  00000-0 -95363-4 0  9995","TLE_LINE2":"2 45735  53.0510 342.4669 0002138  64.2874 295.8335 15.06446999 35757"},"version":"v1.0","launch":"5eb87d46ffd86e000604b389","longitude":175,"latitude":-52.384310675516,"height_km":566.4785926986042,"velocity_kms":7.577045302129094,"id":"5eed7715096e59000698577f"}
{"spaceTrack"{"CCSDS_OMM_VERS":"2.0","COMMENT":"GENERATED VIA SPACE-TRACK.ORG API","CREATION_DATE":"2021-01-21T06:26:10","ORIGINATOR":"18 SPCS","OBJECT_NAME":"STARLINK-1343","OBJECT_ID":"2020-025BF","CENTER_NAME":"EARTH","REF_FRAME":"TEME","TIME_SYSTEM":"UTC","MEAN_ELEMENT_THEORY":"SGP4","EPOCH":"2021-01-21T06:26:10","MEAN_MOTION":15.06069908,"ECCENTRICITY":0.0001827,"INCLINATION":53.0001,"RA_OF_ASC_NODE":183.1185,"ARG_OF_PERICENTER":110.1229,"MEAN_ANOMALY":249.9956,"EPHEMERIS_TYPE":0,"CLASSIFICATION_TYPE":"U","NORAD_CAT_ID":45584,"ELEMENT_SET_NO":999,"REV_AT_EPOCH":4393,"BSTAR":0.0033235,"MEAN_MOTION_DOT":0.00049129,"MEAN_MOTION_DDOT":0,"SEMIMAJOR_AXIS":6926.36,"PERIOD":95.613,"APOAPSIS":549.491,"PERIAPSIS":546.96,"OBJECT_TYPE":"PAYLOAD","RCS_SIZE":"LARGE","COUNTRY_CODE":"US","LAUNCH_DATE":"2020-04-22","SITE":"AFETR","DECAY_DATE":null,"DECAYED":0,"FILE":2940260,"GP_ID":170413290,"TLE_LINE0":"0 STARLINK-1343","TLE_LINE1":"1 45584U 20025BF  21026.52615975  .00049129  00000-0  33235-2 0  9999","TLE_LINE2":"2 45584  53.0001 183.1185 0001827 110.1229 249.9956 15.06069908 43935"},"version":"v1.0","launch":"5eb87d44ffd86e000604b386","longitude":140,"latitude":-32.22101583181724,"height_km":559.1940870206818,"velocity_kms":7.581130139342263,"id":"5eed7715096e590006985780"}
{"spaceTrack"{"CCSDS_OMM_VERS":"2.0","COMMENT":"GENERATED VIA SPACE-TRACK.ORG API","CREATION_DATE":"2021-01-21T06:26:10","ORIGINATOR":"18 SPCS","OBJECT_NAME":"STARLINK-1345","OBJECT_ID":"2020-025BG","CENTER_NAME":"EARTH","REF_FRAME":"TEME","TIME_SYSTEM":"UTC","MEAN_ELEMENT_THEORY":"SGP4","EPOCH":"2021-01-21T06:26:10","MEAN_MOTION":15.06371143,"ECCENTRICITY":0.0004854,"INCLINATION":53.0144,"RA_OF_ASC_NODE":183.0421,"ARG_OF_PERICENTER":167.5441,"MEAN_ANOMALY":192.5668,"EPHEMERIS_TYPE":0,"CLASSIFICATION_TYPE":"U","NORAD_CAT_ID":45585,"ELEMENT_SET_NO":999,"REV_AT_EPOCH":4393,"BSTAR":0.00029004,"MEAN_MOTION_DOT":0.00004038,"MEAN_MOTION_DDOT":0,"SEMIMAJOR_AXIS":6925.437,"PERIOD":95.594,"APOAPSIS":550.664,"PERIAPSIS":543.94,"OBJECT_TYPE":"PAYLOAD","RCS_SIZE":"LARGE","COUNTRY_CODE":"US","LAUNCH_DATE":"2020-04-22","SITE":"AFETR","DECAY_DATE":null,"DECAYED":0,"FILE":2940260,"GP_ID":170413966,"TLE_LINE0":"0 STARLINK-1345","TLE_LINE1":"1 45585U 20025BG  21026.54100405  .00004038  00000-0  29004-3 0  9999","TLE_LINE2":"2 45585  53.0144 183.0421 0004854 167.5441 192.5668 15.06371143 43931"},"version":"v1.0","launch":"5eb87d44ffd86e000604b386","longitude":28,"latitude":-42.94031396847736,"height_km":560.4565557053338,"velocity_kms":7.581638175629798,"id":"5eed7715096e590006985781"}
